[{"OBJECT_NAME":"COSMOS 2540","OBJECT_ID":"2019-057A","EPOCH":"2026-03-09T23:58:22.659168","MEAN_MOTION":13.85929585,"ECCENTRICITY":0.00166088,"INCLINATION":99.2113,"RA_OF_ASC_NODE":82.2282,"ARG_OF_PERICENTER":78.0483,"MEAN_ANOMALY":282.2534,"EPHEMERIS_TYPE":0,"CLASSIFICATION_TYPE":"U","NORAD_CAT_ID":44517,"ELEMENT_SET_NO":999,"REV_AT_EPOCH":33013,"BSTAR":0.0001145512,"MEAN_MOTION_DOT":8.8e-7,"MEAN_MOTION_DDOT":0},{"OBJECT_NAME":"SL-8 R\/B","OBJECT_ID":"1982-055B","EPOCH":"2026-03-09T23:15:39.806208","MEAN_MOTION":13.74589877,"ECCENTRICITY":0.00431728,"INCLINATION":65.8348,"RA_OF_ASC_NODE":329.0868,"ARG_OF_PERICENTER":310.2259,"MEAN_ANOMALY":133.7656,"EPHEMERIS_TYPE":0,"CLASSIFICATION_TYPE":"U","NORAD_CAT_ID":13260,"ELEMENT_SET_NO":999,"REV_AT_EPOCH":19729,"BSTAR":6.3096123e-5,"MEAN_MOTION_DOT":-2.0e-7,"MEAN_MOTION_DDOT":0}]
